NORAD_CAT_ID,OBJECT_NAME,OBJECT_TYPE,EPOCH,MEAN_MOTION,ECCENTRICITY,INCLINATION,RA_OF_ASC_NODE,ARG_OF_PERICENTER,MEAN_ANOMALY,BSTAR,MEAN_MOTION_DOT,MEAN_MOTION_DDOT,TLE_LINE0,TLE_LINE1,TLE_LINE2,SEMIMAJOR_AXIS,PERIOD,APOGEE,PERIGEE,DECAYED
54801.0,STARLINK-5429,PAYLOAD,2023-10-28 18:28:30,15.08837584,0.0001804,53.2161,317.4805,85.6538,274.4661,0.00016048,2.267e-05,0.0,0 STARLINK-5429,1 54801U 22175AV  23301.76980156  .00002267  00000-0  16048-3 0  9995,2 54801  53.2161 317.4805 0001804  85.6538 274.4661 15.08837584 49657,6917.888,95.438,541.001,538.505,0.0
54801.0,STARLINK-5429,PAYLOAD,2023-10-29 07:11:35,15.08851532,0.0001717,53.2146,315.1016,84.314,275.8048,0.00096326,0.0001508,0.0,0 STARLINK-5429,1 54801U 22175AV  23302.29972164  .00015080  00000-0  96326-3 0  9998,2 54801  53.2146 315.1016 0001717  84.3140 275.8048 15.08851532 49739,6917.845,95.437,540.898,538.522,0.0
54801.0,STARLINK-5429,PAYLOAD,2023-10-29 18:19:17,15.0884909,0.000171,53.2149,313.0192,95.5369,264.5818,0.0005696,8.791e-05,0.0,0 STARLINK-5429,1 54801U 22175AV  23302.76340056  .00008791  00000-0  56960-3 0  9990,2 54801  53.2149 313.0192 0001710  95.5369 264.5818 15.08849090 49808,6917.853,95.437,540.901,538.535,0.0
54801.0,STARLINK-5429,PAYLOAD,2023-10-30 00:40:50,15.0884538,0.000213,53.2166,311.8309,93.4543,266.6693,0.00029868,4.469e-05,0.0,0 STARLINK-5429,1 54801U 22175AV  23303.02836249  .00004469  00000-0  29868-3 0  9999,2 54801  53.2166 311.8309 0002130  93.4543 266.6693 15.08845380 47687,6917.864,95.437,541.202,538.255,0.0
54801.0,STARLINK-5429,PAYLOAD,2023-10-30 18:10:05,15.08836051,0.0001751,53.2151,308.5578,105.1487,254.9698,7.2059e-05,8.59e-06,0.0,0 STARLINK-5429,1 54801U 22175AV  23303.75700586  .00000859  00000-0  72059-4 0  9993,2 54801  53.2151 308.5578 0001751 105.1487 254.9698 15.08836051 47790,6917.892,95.438,540.969,538.546,0.0
54801.0,STARLINK-5429,PAYLOAD,2023-10-31 06:53:10,15.08835947,0.0001945,53.2169,306.1793,95.1176,265.0039,1.9361e-05,2e-07,0.0,0 STARLINK-5429,1 54801U 22175AV  23304.28692848  .00000020  00000-0  19361-4 0  9990,2 54801  53.2169 306.1793 0001945  95.1176 265.0039 15.08835947 50036,6917.893,95.438,541.103,538.412,0.0
54801.0,STARLINK-5429,PAYLOAD,2023-11-01 05:08:33,15.0884541,0.000191,53.2176,302.0172,93.4678,266.6533,0.0001603,2.264e-05,0.0,0 STARLINK-5429,1 54801U 22175AV  23305.21428209  .00002264  00000-0  16030-3 0  9993,2 54801  53.2176 302.0172 0001910  93.4678 266.6533 15.08845410 48017,6917.864,95.437,541.05,538.408,0.0
54801.0,STARLINK-5429,PAYLOAD,2023-11-01 06:43:56,15.08846675,0.0001738,53.2182,301.7202,93.3116,266.8075,0.00022191,3.246e-05,0.0,0 STARLINK-5429,1 54801U 22175AV  23305.28052037  .00003246  00000-0  22191-3 0  9998,2 54801  53.2182 301.7202 0001738  93.3116 266.8075 15.08846675 50186,6917.86,95.437,540.927,538.523,0.0
54801.0,STARLINK-5429,PAYLOAD,2023-11-02 04:59:21,15.08841366,0.0001796,53.2166,297.5562,97.879,262.2406,0.00015799,2.227e-05,0.0,0 STARLINK-5429,1 54801U 22175AV  23306.20788793  .00002227  00000-0  15799-3 0  9990,2 54801  53.2166 297.5562 0001796  97.8790 262.2406 15.08841366 48165,6917.876,95.437,540.984,538.499,0.0
54801.0,STARLINK-5429,PAYLOAD,2023-11-02 06:34:44,15.08844642,0.0001775,53.2169,297.2591,98.2356,261.8837,0.0002103,3.061e-05,0.0,0 STARLINK-5429,1 54801U 22175AV  23306.27412669  .00003061  00000-0  21030-3 0  9995,2 54801  53.2169 297.2591 0001775  98.2356 261.8837 15.08844642 50332,6917.866,95.437,540.959,538.503,0.0
54801.0,STARLINK-5429,PAYLOAD,2023-11-03 06:25:31,15.0884287,0.0001796,53.2167,292.7988,99.6329,260.4866,2.2685e-05,7.3e-07,0.0,0 STARLINK-5429,1 54801U 22175AV  23307.26772659  .00000073  00000-0  22685-4 0  9991,2 54801  53.2167 292.7988 0001796  99.6329 260.4866 15.08842870 48322,6917.872,95.437,540.979,538.494,0.0
54801.0,STARLINK-5429,PAYLOAD,2023-11-03 22:19:23,15.08835244,0.0001813,53.2161,289.8248,103.4089,256.7106,3.7401e-05,3.07e-06,0.0,0 STARLINK-5429,1 54801U 22175AV  23307.93013207  .00000307  00000-0  37401-4 0  9994,2 54801  53.2161 289.8248 0001813 103.4089 256.7106 15.08835244 50582,6917.895,95.438,541.014,538.506,0.0
54801.0,STARLINK-5429,PAYLOAD,2023-11-04 04:40:55,15.08839146,0.0001754,53.216,288.6335,111.9583,248.1596,0.00010463,1.377e-05,0.0,0 STARLINK-5429,1 54801U 22175AV  23308.19509125  .00001377  00000-0  10463-3 0  9998,2 54801  53.2160 288.6335 0001754 111.9583 248.1596 15.08839146 48469,6917.883,95.438,540.961,538.535,0.0
54801.0,STARLINK-5429,PAYLOAD,2023-11-04 09:27:05,15.08841961,0.0001724,53.2161,287.7414,104.4438,255.6745,0.00020149,2.92e-05,0.0,0 STARLINK-5429,1 54801U 22175AV  23308.39381087  .00002920  00000-0  20149-3 0  9992,2 54801  53.2161 287.7414 0001724 104.4438 255.6745 15.08841961 50652,6917.874,95.437,540.932,538.547,0.0
54801.0,STARLINK-5429,PAYLOAD,2023-11-04 15:48:37,15.08841414,0.0001675,53.2161,286.5521,90.4741,269.6443,0.00020157,2.922e-05,0.0,0 STARLINK-5429,1 54801U 22175AV  23308.65877307  .00002922  00000-0  20157-3 0  9997,2 54801  53.2161 286.5521 0001675  90.4741 269.6443 15.08841414 50691,6917.876,95.437,540.9,538.582,0.0
54801.0,STARLINK-5429,PAYLOAD,2023-11-05 06:07:06,15.08850167,0.0001881,53.2178,283.8752,104.0039,256.1163,0.00043502,6.644e-05,0.0,0 STARLINK-5429,1 54801U 22175AV  23309.25493155  .00006644  00000-0  43502-3 0  9993,2 54801  53.2178 283.8752 0001881 104.0039 256.1163 15.08850167 48621,6917.849,95.437,541.016,538.413,0.0
54801.0,STARLINK-5429,PAYLOAD,2023-11-05 15:39:24,15.08848599,0.0001897,53.217,282.0941,85.2495,274.8714,0.00030702,4.603e-05,0.0,0 STARLINK-5429,1 54801U 22175AV  23309.65237058  .00004603  00000-0  30702-3 0  9996,2 54801  53.2170 282.0941 0001897  85.2495 274.8714 15.08848599 50849,6917.854,95.437,541.031,538.407,0.0
54801.0,STARLINK-5429,PAYLOAD,2023-11-06 04:22:28,15.08880538,0.0001693,53.216,279.7124,89.2814,270.8372,0.00083034,0.00012966,0.0,0 STARLINK-5429,1 54801U 22175AV  23310.18227411  .00012966  00000-0  83034-3 0  9995,2 54801  53.2160 279.7124 0001693  89.2814 270.8372 15.08880538 48760,6917.756,95.435,540.793,538.45,0.0
54801.0,STARLINK-5429,PAYLOAD,2023-11-06 07:33:14,15.08889405,0.0001837,53.2157,279.1172,87.8987,272.2216,0.00095317,0.00014935,0.0,0 STARLINK-5429,1 54801U 22175AV  23310.31474825  .00014935  00000-0  95317-3 0  9998,2 54801  53.2157 279.1172 0001837  87.8987 272.2216 15.08889405 50946,6917.729,95.434,540.865,538.324,0.0
54801.0,STARLINK-5429,PAYLOAD,2023-11-06 15:30:10,15.08853367,0.0002366,53.2178,277.631,85.2124,274.9139,3.7814e-05,3.14e-06,0.0,0 STARLINK-5429,1 54801U 22175AV  23310.64595846  .00000314  00000-0  37814-4 0  9996,2 54801  53.2178 277.6310 0002366  85.2124 274.9139 15.08853367 48835,6917.84,95.437,541.341,538.068,0.0
54801.0,STARLINK-5429,PAYLOAD,2023-11-07 04:13:16,15.08824208,0.0001407,53.2159,275.2537,87.6351,272.4803,-0.00054251,-8.908e-05,0.0,0 STARLINK-5429,1 54801U 22175AV  23311.17588516 -.00008908  00000-0 -54251-3 0  9993,2 54801  53.2159 275.2537 0001407  87.6351 272.4803 15.08824208 48914,6917.929,95.439,540.767,538.82,0.0
54801.0,STARLINK-5429,PAYLOAD,2023-11-07 07:24:02,15.08825674,0.0001426,53.2161,274.6579,90.7921,269.3234,-0.00042987,-7.12e-05,0.0,0 STARLINK-5429,1 54801U 22175AV  23311.30836588 -.00007120  00000-0 -42987-3 0  9991,2 54801  53.2161 274.6579 0001426  90.7921 269.3234 15.08825674 51099,6917.924,95.438,540.776,538.803,0.0
54801.0,STARLINK-5429,PAYLOAD,2023-11-08 04:04:04,15.08835276,0.0001317,53.2163,270.7916,91.4703,268.644,0.00073593,0.00011442,0.0,0 STARLINK-5429,1 54801U 22175AV  23312.16949511  .00011442  00000-0  73593-3 0  9994,2 54801  53.2163 270.7916 0001317  91.4703 268.6440 15.08835276 49062,6917.895,95.438,540.671,538.849,0.0
54801.0,STARLINK-5429,PAYLOAD,2023-11-08 07:14:50,15.08838722,0.0001335,53.2164,270.196,92.0235,268.091,0.00086415,0.00013491,0.0,0 STARLINK-5429,1 54801U 22175AV  23312.30197571  .00013491  00000-0  86415-3 0  9994,2 54801  53.2164 270.1960 0001335  92.0235 268.0910 15.08838722 51241,6917.884,95.438,540.673,538.826,0.0
54801.0,STARLINK-5429,PAYLOAD,2023-11-09 07:05:37,15.08859341,0.0001162,53.2167,265.7364,97.5068,262.6056,0.00071526,0.0001112,0.0,0 STARLINK-5429,1 54801U 22175AV  23313.29557153  .00011120  00000-0  71526-3 0  9993,2 54801  53.2167 265.7364 0001162  97.5068 262.6056 15.08859341 49231,6917.821,95.436,540.49,538.882,0.0
54801.0,STARLINK-5429,PAYLOAD,2023-11-10 03:45:38,15.0884509,0.000128,53.2166,261.8728,98.751,261.3627,0.00028404,4.236e-05,0.0,0 STARLINK-5429,1 54801U 22175AV  23314.15669510  .00004236  00000-0  28404-3 0  9997,2 54801  53.2166 261.8728 0001280  98.7510 261.3627 15.08845090 49367,6917.865,95.437,540.615,538.844,0.0
54801.0,STARLINK-5429,PAYLOAD,2023-11-11 02:01:02,15.08841108,0.0001317,53.2163,257.7093,91.9331,268.1812,0.00013709,1.895e-05,0.0,0 STARLINK-5429,1 54801U 22175AV  23315.08405704  .00001895  00000-0  13709-3 0  9993,2 54801  53.2163 257.7093 0001317  91.9331 268.1812 15.08841108 49503,6917.877,95.437,540.653,538.831,0.0
54801.0,STARLINK-5429,PAYLOAD,2023-11-12 03:27:12,15.08842249,0.0001418,53.2163,252.9513,90.024,270.0914,0.00021622,3.155e-05,0.0,0 STARLINK-5429,1 54801U 22175AV  23316.14389989  .00003155  00000-0  21622-3 0  9991,2 54801  53.2163 252.9513 0001418  90.0240 270.0914 15.08842249 49667,6917.874,95.437,540.719,538.758,0.0
54801.0,STARLINK-5429,PAYLOAD,2023-11-13 03:17:59,15.08847927,0.0001572,53.2169,248.492,73.541,286.5755,0.0003625,5.487e-05,0.0,0 STARLINK-5429,1 54801U 22175AV  23317.13749972  .00005487  00000-0  36250-3 0  9996,2 54801  53.2169 248.4920 0001572  73.5410 286.5755 15.08847927 51971,6917.856,95.437,540.809,538.634,0.0
54801.0,STARLINK-5429,PAYLOAD,2023-11-13 12:50:18,15.08842457,0.0001598,53.2172,246.7073,74.845,285.2719,0.00011064,1.473e-05,0.0,0 STARLINK-5429,1 54801U 22175AV  23317.53493922  .00001473  00000-0  11064-3 0  9998,2 54801  53.2172 246.7073 0001598  74.8450 285.2719 15.08842457 49876,6917.873,95.437,540.843,538.632,0.0
